{
  "provinces": [
    {
      "name": "åŒ—äº¬",
      "name_en": "beijing",
      "data_file": "data_åŒ—äº¬_2023_2025.csv",
      "enabled": true,
      "icon": "ğŸ›ï¸",
      "type": "municipality",
      "region": "ååŒ—"
    },
    {
      "name": "ä¸Šæµ·",
      "name_en": "shanghai",
      "data_file": "data_ä¸Šæµ·_2023_2025.csv",
      "enabled": true,
      "icon": "ğŸŒƒ",
      "type": "municipality",
      "region": "åä¸œ"
    },
    {
      "name": "å¤©æ´¥",
      "name_en": "tianjin",
      "data_file": "data_å¤©æ´¥_2023_2025.csv",
      "enabled": true,
      "icon": "ğŸŒ‰",
      "type": "municipality",
      "region": "ååŒ—"
    },
    {
      "name": "ç¦å»º",
      "name_en": "fujian",
      "data_file": "data_ç¦å»º_2023_2025.csv",
      "enabled": true,
      "icon": "ğŸŒŠ",
      "cities": ["å¦é—¨å¸‚", "æ¼³å·å¸‚", "ç¦å·å¸‚"],
      "region": "åä¸œ"
    },
    {
      "name": "å±±ä¸œ",
      "name_en": "shandong",
      "data_file": "data_å±±ä¸œ_2023_2025.csv",
      "enabled": true,
      "icon": "â›°ï¸",
      "cities": ["æµå—å¸‚", "æ·„åšå¸‚", "é’å²›å¸‚"],
      "region": "åä¸œ"
    },
    {
      "name": "æ²³å—",
      "name_en": "henan",
      "data_file": "data_æ²³å—_2023_2025.csv",
      "enabled": true,
      "icon": "ğŸ¯",
      "cities": ["æ–°ä¹¡å¸‚", "æ´›é˜³å¸‚", "éƒ‘å·å¸‚"],
      "region": "åä¸­"
    },
    {
      "name": "æ±Ÿè¥¿",
      "name_en": "jiangxi",
      "data_file": "data_æ±Ÿè¥¿_2023_2025.csv",
      "enabled": true,
      "icon": "ğŸï¸",
      "cities": ["ä¹æ±Ÿ", "å—æ˜Œå¸‚", "èµ£å·å¸‚"],
      "region": "åä¸œ"
    },
    {
      "name": "æ¹–å—",
      "name_en": "hunan",
      "data_file": "data_æ¹–å—_2023_2025.csv",
      "enabled": true,
      "icon": "ğŸŒ¸",
      "cities": ["å²³é˜³å¸‚", "æ ªæ´²å¸‚", "é•¿æ²™å¸‚"],
      "region": "åä¸­"
    },
    {
      "name": "æ¹–åŒ—",
      "name_en": "hubei",
      "data_file": "data_æ¹–åŒ—_2023_2025.csv",
      "enabled": true,
      "icon": "ğŸ”ï¸",
      "cities": ["è¥„é˜³å¸‚"],
      "region": "åä¸­"
    },
    {
      "name": "å¹¿è¥¿",
      "name_en": "guangxi",
      "data_file": "data_å¹¿è¥¿_2023_2025.csv",
      "enabled": true,
      "icon": "ğŸŒ´",
      "cities": ["å—å®å¸‚", "æŸ³å·å¸‚", "æ¡‚æ—å¸‚"],
      "region": "åå—"
    },
    {
      "name": "å®å¤",
      "name_en": "ningxia",
      "data_file": "data_å®å¤_2023_2025.csv",
      "enabled": true,
      "icon": "ğŸœï¸",
      "cities": ["é“¶å·å¸‚"],
      "region": "è¥¿åŒ—"
    },
    {
      "name": "å†…è’™å¤",
      "name_en": "neimenggu",
      "data_file": "data_å†…è’™å¤_2023_2025.csv",
      "enabled": true,
      "icon": "ğŸ",
      "cities": ["åŒ…å¤´å¸‚", "å‘¼å’Œæµ©ç‰¹å¸‚"],
      "region": "ååŒ—"
    },
    {
      "name": "æ–°ç–†",
      "name_en": "xinjiang",
      "data_file": "data_æ–°ç–†_2023_2025.csv",
      "enabled": true,
      "icon": "ğŸ”ï¸",
      "cities": ["ä¹Œé²æœ¨é½å¸‚"],
      "region": "è¥¿åŒ—"
    }
  ],
  "data_directory": "data/processed",
  "year_range": {
    "start": 2023,
    "end": 2025
  }
}
